{"type": "FeatureCollection", "features": [ {"type": "Feature", "properties": {"norad_id": 42741, "name": "EUTELSAT 172B", "group": "eutelsat", "lat": 0.0042650106565230855, "lon": -168.71571236618888, "alt_km": 35785.971375087305, "timestamp": "2025-12-16T19:34:23.936818+00:00", "meta": {"OBJECT_NAME": "EUTELSAT 172B", "OBJECT_ID": "2017-029B", "EPOCH": "2025-12-15T21:03:14.673024", "MEAN_MOTION": 1.00273363, "ECCENTRICITY": 1.014e-05, "INCLINATION": 0.046, "RA_OF_ASC_NODE": 150.6556, "ARG_OF_PERICENTER": 192.3692, "MEAN_ANOMALY": 229.5527, "EPHEMERIS_TYPE": 0, "CLASSIFICATION_TYPE": "U", "NORAD_CAT_ID": 42741, "ELEMENT_SET_NO": 999, "REV_AT_EPOCH": 3189, "BSTAR": 0, "MEAN_MOTION_DOT": 1.7e-07, "MEAN_MOTION_DDOT": 0}, "tle": {"line1": "1 42741U 17029B   25349.87725316  .00000017  00000+0  00000+0 0  9995", "line2": "2 42741   0.0460 150.6556 0000101 192.3692 229.5527  1.00273363 31890"}}, "geometry": {"type": "Point", "coordinates": [-168.71571236618888, 0.0042650106565230855]}}, {"type": "Feature", "properties": {"norad_id": 44334, "name": "EUTELSAT 7C", "group": "eutelsat", "lat": -0.008895208508693193, "lon": 26.29902344019986, "alt_km": 35795.860141893005, "timestamp": "2025-12-16T19:34:23.936830+00:00", "meta": {"OBJECT_NAME": "EUTELSAT 7C", "OBJECT_ID": "2019-034B", "EPOCH": "2025-12-15T21:58:54.342336", "MEAN_MOTION": 1.002713, "ECCENTRICITY": 0.00030896, "INCLINATION": 0.0727, "RA_OF_ASC_NODE": 177.6823, "ARG_OF_PERICENTER": 70.5901, "MEAN_ANOMALY": 173.2556, "EPHEMERIS_TYPE": 0, "CLASSIFICATION_TYPE": "U", "NORAD_CAT_ID": 44334, "ELEMENT_SET_NO": 999, "REV_AT_EPOCH": 499, "BSTAR": 0, "MEAN_MOTION_DOT": 7.1e-07, "MEAN_MOTION_DDOT": 0}, "tle": {"line1": "1 44334U 19034B   25349.91590674  .00000071  00000+0  00000+0 0  9995", "line2": "2 44334   0.0727 177.6823 0003089  70.5901 173.2556  1.00271300  4997"}}, "geometry": {"type": "Point", "coordinates": [26.29902344019986, -0.008895208508693193]}}, {"type": "Feature", "properties": {"norad_id": 44624, "name": "EUTELSAT 5 WEST B", "group": "eutelsat", "lat": 0.05188935098294782, "lon": 14.330220426280396, "alt_km": 35790.42656779587, "timestamp": "2025-12-16T19:34:23.936842+00:00", "meta": {"OBJECT_NAME": "EUTELSAT 5 WEST B", "OBJECT_ID": "2019-067A", "EPOCH": "2025-12-15T01:22:44.632992", "MEAN_MOTION": 1.00272503, "ECCENTRICITY": 0.00032173, "INCLINATION": 0.0649, "RA_OF_ASC_NODE": 338.3897, "ARG_OF_PERICENTER": 286.2375, "MEAN_ANOMALY": 195.0282, "EPHEMERIS_TYPE": 0, "CLASSIFICATION_TYPE": "U", "NORAD_CAT_ID": 44624, "ELEMENT_SET_NO": 999, "REV_AT_EPOCH": 2259, "BSTAR": 0, "MEAN_MOTION_DOT": -2.2e-07, "MEAN_MOTION_DDOT": 0}, "tle": {"line1": "1 44624U 19067A   25349.05746103 -.00000022  00000+0  00000+0 0  9995", "line2": "2 44624   0.0649 338.3897 0003217 286.2375 195.0282  1.00272503 22593"}}, "geometry": {"type": "Point", "coordinates": [14.330220426280396, 0.05188935098294782]}}, {"type": "Feature", "properties": {"norad_id": 45027, "name": "EUTELSAT KONNECT", "group": "eutelsat", "lat": -0.04464105610341821, "lon": 26.49891437904445, "alt_km": 35787.40715328213, "timestamp": "2025-12-16T19:34:23.936854+00:00", "meta": {"OBJECT_NAME": "EUTELSAT KONNECT", "OBJECT_ID": "2020-005B", "EPOCH": "2025-12-15T21:00:38.918016", "MEAN_MOTION": 1.00270513, "ECCENTRICITY": 0.00013543, "INCLINATION": 0.0713, "RA_OF_ASC_NODE": 96.4477, "ARG_OF_PERICENTER": 189.8624, "MEAN_ANOMALY": 120.8248, "EPHEMERIS_TYPE": 0, "CLASSIFICATION_TYPE": "U", "NORAD_CAT_ID": 45027, "ELEMENT_SET_NO": 999, "REV_AT_EPOCH": 2249, "BSTAR": 0, "MEAN_MOTION_DOT": 7.2e-07, "MEAN_MOTION_DDOT": 0}, "tle": {"line1": "1 45027U 20005B   25349.87545044  .00000072  00000+0  00000+0 0  9992", "line2": "2 45027   0.0713  96.4477 0001354 189.8624 120.8248  1.00270513 22490"}}, "geometry": {"type": "Point", "coordinates": [26.49891437904445, -0.04464105610341821]}}, {"type": "Feature", "properties": {"norad_id": 49056, "name": "EUTELSAT QUANTUM", "group": "eutelsat", "lat": 0.03346712103587826, "lon": 67.03001864479725, "alt_km": 35798.59625858862, "timestamp": "2025-12-16T19:34:23.936866+00:00", "meta": {"OBJECT_NAME": "EUTELSAT QUANTUM", "OBJECT_ID": "2021-069B", "EPOCH": "2025-12-15T22:10:30.730656", "MEAN_MOTION": 1.0027326, "ECCENTRICITY": 0.00035735, "INCLINATION": 0.0113, "RA_OF_ASC_NODE": 1.7174, "ARG_OF_PERICENTER": 275.9192, "MEAN_ANOMALY": 187.5285, "EPHEMERIS_TYPE": 0, "CLASSIFICATION_TYPE": "U", "NORAD_CAT_ID": 49056, "ELEMENT_SET_NO": 999, "REV_AT_EPOCH": 1609, "BSTAR": 0, "MEAN_MOTION_DOT": 1.48e-06, "MEAN_MOTION_DDOT": 0}, "tle": {"line1": "1 49056U 21069B   25349.92396679  .00000148  00000+0  00000+0 0  9997", "line2": "2 49056   0.0113   1.7174 0003573 275.9192 187.5285  1.00273260 16097"}}, "geometry": {"type": "Point", "coordinates": [67.03001864479725, 0.03346712103587826]}}, {"type": "Feature", "properties": {"norad_id": 53765, "name": "EUTELSAT KONNECT VHTS", "group": "eutelsat", "lat": -0.04245549318951808, "lon": 22.04415225376754, "alt_km": 35795.67370589097, "timestamp": "2025-12-16T19:34:23.936878+00:00", "meta": {"OBJECT_NAME": "EUTELSAT KONNECT VHTS", "OBJECT_ID": "2022-110A", "EPOCH": "2025-12-15T06:33:09.991584", "MEAN_MOTION": 1.0027256, "ECCENTRICITY": 0.00026657, "INCLINATION": 0.0637, "RA_OF_ASC_NODE": 102.1934, "ARG_OF_PERICENTER": 128.1702, "MEAN_ANOMALY": 314.8436, "EPHEMERIS_TYPE": 0, "CLASSIFICATION_TYPE": "U", "NORAD_CAT_ID": 53765, "ELEMENT_SET_NO": 999, "REV_AT_EPOCH": 498, "BSTAR": 0, "MEAN_MOTION_DOT": 3.9e-07, "MEAN_MOTION_DDOT": 0}, "tle": {"line1": "1 53765U 22110A   25349.27303231  .00000039  00000+0  00000+0 0  9996", "line2": "2 53765   0.0637 102.1934 0002665 128.1702 314.8436  1.00272560  4987"}}, "geometry": {"type": "Point", "coordinates": [22.04415225376754, -0.04245549318951808]}}, {"type": "Feature", "properties": {"norad_id": 54048, "name": "EUTELSAT HOTBIRD 13F", "group": "eutelsat", "lat": 0.06244283155099765, "lon": 32.295271141309456, "alt_km": 35777.50047313647, "timestamp": "2025-12-16T19:34:23.936891+00:00", "meta": {"OBJECT_NAME": "EUTELSAT HOTBIRD 13F", "OBJECT_ID": "2022-134A", "EPOCH": "2025-12-14T22:02:26.653056", "MEAN_MOTION": 1.0027139, "ECCENTRICITY": 0.00023413, "INCLINATION": 0.0492, "RA_OF_ASC_NODE": 293.4772, "ARG_OF_PERICENTER": 68.5165, "MEAN_ANOMALY": 65.4415, "EPHEMERIS_TYPE": 0, "CLASSIFICATION_TYPE": "U", "NORAD_CAT_ID": 54048, "ELEMENT_SET_NO": 999, "REV_AT_EPOCH": 1152, "BSTAR": 0, "MEAN_MOTION_DOT": 1.07e-06, "MEAN_MOTION_DDOT": 0}, "tle": {"line1": "1 54048U 22134A   25348.91836404  .00000107  00000+0  00000+0 0  9996", "line2": "2 54048   0.0492 293.4772 0002341  68.5165  65.4415  1.00271390 11520"}}, "geometry": {"type": "Point", "coordinates": [32.295271141309456, 0.06244283155099765]}}, {"type": "Feature", "properties": {"norad_id": 54225, "name": "EUTELSAT HOTBIRD 13G", "group": "eutelsat", "lat": 0.03537895837397955, "lon": 32.27118560173437, "alt_km": 35791.716131848916, "timestamp": "2025-12-16T19:34:23.936904+00:00", "meta": {"OBJECT_NAME": "EUTELSAT HOTBIRD 13G", "OBJECT_ID": "2022-146A", "EPOCH": "2025-12-15T18:35:09.269376", "MEAN_MOTION": 1.00272541, "ECCENTRICITY": 0.0001793, "INCLINATION": 0.0499, "RA_OF_ASC_NODE": 235.66, "ARG_OF_PERICENTER": 298.8114, "MEAN_ANOMALY": 201.9832, "EPHEMERIS_TYPE": 0, "CLASSIFICATION_TYPE": "U", "NORAD_CAT_ID": 54225, "ELEMENT_SET_NO": 999, "REV_AT_EPOCH": 562, "BSTAR": 0, "MEAN_MOTION_DOT": 1.1e-06, "MEAN_MOTION_DDOT": 0}, "tle": {"line1": "1 54225U 22146A   25349.77441284  .00000110  00000+0  00000+0 0  9993", "line2": "2 54225   0.0499 235.6600 0001793 298.8114 201.9832  1.00272541  5627"}}, "geometry": {"type": "Point", "coordinates": [32.27118560173437, 0.03537895837397955]}}, {"type": "Feature", "properties": {"norad_id": 54259, "name": "EUTELSAT 10B", "group": "eutelsat", "lat": -0.031635017788307164, "lon": 29.292868635676225, "alt_km": 35785.84581187447, "timestamp": "2025-12-16T19:34:23.936915+00:00", "meta": {"OBJECT_NAME": "EUTELSAT 10B", "OBJECT_ID": "2022-157A", "EPOCH": "2025-12-15T21:59:46.757760", "MEAN_MOTION": 1.00281353, "ECCENTRICITY": 0.00010885, "INCLINATION": 0.06, "RA_OF_ASC_NODE": 100.1867, "ARG_OF_PERICENTER": 52.6938, "MEAN_ANOMALY": 271.8619, "EPHEMERIS_TYPE": 0, "CLASSIFICATION_TYPE": "U", "NORAD_CAT_ID": 54259, "ELEMENT_SET_NO": 999, "REV_AT_EPOCH": 1118, "BSTAR": 0, "MEAN_MOTION_DOT": 9.2e-07, "MEAN_MOTION_DDOT": 0}, "tle": {"line1": "1 54259U 22157A   25349.91651340  .00000092  00000+0  00000+0 0  9993", "line2": "2 54259   0.0600 100.1867 0001088  52.6938 271.8619  1.00281353 11184"}}, "geometry": {"type": "Point", "coordinates": [29.292868635676225, -0.031635017788307164]}}, {"type": "Feature", "properties": {"norad_id": 59346, "name": "EUTELSAT 36D", "group": "eutelsat", "lat": 0.042662716947809584, "lon": 55.11909252352187, "alt_km": 35785.18849204298, "timestamp": "2025-12-16T19:34:23.936927+00:00", "meta": {"OBJECT_NAME": "EUTELSAT 36D", "OBJECT_ID": "2024-059A", "EPOCH": "2025-12-15T22:07:08.552928", "MEAN_MOTION": 1.00270764, "ECCENTRICITY": 3.254e-05, "INCLINATION": 0.0232, "RA_OF_ASC_NODE": 356.4092, "ARG_OF_PERICENTER": 18.9682, "MEAN_ANOMALY": 77.0586, "EPHEMERIS_TYPE": 0, "CLASSIFICATION_TYPE": "U", "NORAD_CAT_ID": 59346, "ELEMENT_SET_NO": 999, "REV_AT_EPOCH": 631, "BSTAR": 0, "MEAN_MOTION_DOT": 0, "MEAN_MOTION_DDOT": 0}, "tle": {"line1": "1 59346U 24059A   25349.92162677  .00000000  00000+0  00000+0 0  9998", "line2": "2 59346   0.0232 356.4092 0000325  18.9682  77.0586  1.00270764  6319"}}, "geometry": {"type": "Point", "coordinates": [55.11909252352187, 0.042662716947809584]}}]}